#                       # check error code 4
# 0 150 5
1 33333U 05037B   05333.02012661  .25992681  00000-0  24476-3 0  1534
2 33333  96.4736 157.9986 9950000 244.0492 110.6523  4.00004038 10708
